{"type": "FeatureCollection", "features": [ {"type": "Feature", "properties": {"norad_id": 30630, "name": "FENGYUN 1C DEB", "group": "fengyun-1c-debris", "lat": 68.33246858500165, "lon": 145.1021449604138, "alt_km": 793.1720600810704, "timestamp": "2025-12-21T16:47:55.015919+00:00", "meta": {"OBJECT_NAME": "FENGYUN 1C DEB", "OBJECT_ID": "1999-025ANM", "EPOCH": "2025-12-20T17:08:15.156384", "MEAN_MOTION": 14.22403981, "ECCENTRICITY": 0.00257822, "INCLINATION": 99.1728, "RA_OF_ASC_NODE": 168.0748, "ARG_OF_PERICENTER": 52.4476, "MEAN_ANOMALY": 12.2376, "EPHEMERIS_TYPE": 0, "CLASSIFICATION_TYPE": "U", "NORAD_CAT_ID": 30630, "ELEMENT_SET_NO": 999, "REV_AT_EPOCH": 97326, "BSTAR": 0.00058317004, "MEAN_MOTION_DOT": 1.255e-05, "MEAN_MOTION_DDOT": 0}, "tle": {"line1": "1 30630U 99025ANM 25354.71406431  .00001255  00000+0  58317-3 0  9991", "line2": "2 30630  99.1728 168.0748 0025782  52.4476  12.2376 14.22403981973268"}}, "geometry": {"type": "Point", "coordinates": [145.1021449604138, 68.33246858500165]}}, {"type": "Feature", "properties": {"norad_id": 30632, "name": "FENGYUN 1C DEB", "group": "fengyun-1c-debris", "lat": 53.30827114166743, "lon": -40.29889994455941, "alt_km": 668.7358783770469, "timestamp": "2025-12-21T16:47:55.015929+00:00", "meta": {"OBJECT_NAME": "FENGYUN 1C DEB", "OBJECT_ID": "1999-025ANP", "EPOCH": "2025-12-21T06:40:34.434912", "MEAN_MOTION": 14.63014603, "ECCENTRICITY": 0.0014345, "INCLINATION": 98.8249, "RA_OF_ASC_NODE": 127.2165, "ARG_OF_PERICENTER": 144.6722, "MEAN_ANOMALY": 280.9828, "EPHEMERIS_TYPE": 0, "CLASSIFICATION_TYPE": "U", "NORAD_CAT_ID": 30632, "ELEMENT_SET_NO": 999, "REV_AT_EPOCH": 97816, "BSTAR": 0.0025937, "MEAN_MOTION_DOT": 0.00013288, "MEAN_MOTION_DDOT": 0}, "tle": {"line1": "1 30632U 99025ANP 25355.27817633  .00013288  00000+0  25937-2 0  9995", "line2": "2 30632  98.8249 127.2165 0014345 144.6722 280.9828 14.63014603978169"}}, "geometry": {"type": "Point", "coordinates": [-40.29889994455941, 53.30827114166743]}}, {"type": "Feature", "properties": {"norad_id": 30633, "name": "FENGYUN 1C DEB", "group": "fengyun-1c-debris", "lat": -67.94911051299388, "lon": -118.49173869742306, "alt_km": 831.8463077358792, "timestamp": "2025-12-21T16:47:55.015939+00:00", "meta": {"OBJECT_NAME": "FENGYUN 1C DEB", "OBJECT_ID": "1999-025ANQ", "EPOCH": "2025-12-18T21:02:34.080576", "MEAN_MOTION": 14.04402448, "ECCENTRICITY": 0.01300862, "INCLINATION": 98.4205, "RA_OF_ASC_NODE": 217.4392, "ARG_OF_PERICENTER": 242.7308, "MEAN_ANOMALY": 181.0418, "EPHEMERIS_TYPE": 0, "CLASSIFICATION_TYPE": "U", "NORAD_CAT_ID": 30633, "ELEMENT_SET_NO": 999, "REV_AT_EPOCH": 95978, "BSTAR": 0.00057231836, "MEAN_MOTION_DOT": 9.42e-06, "MEAN_MOTION_DDOT": 0}, "tle": {"line1": "1 30633U 99025ANQ 25352.87678334  .00000942  00000+0  57232-3 0  9999", "line2": "2 30633  98.4205 217.4392 0130086 242.7308 181.0418 14.04402448959789"}}, "geometry": {"type": "Point", "coordinates": [-118.49173869742306, -67.94911051299388]}}, {"type": "Feature", "properties": {"norad_id": 30634, "name": "FENGYUN 1C DEB", "group": "fengyun-1c-debris", "lat": 69.371084765931, "lon": -175.4109499119934, "alt_km": 782.746362207783, "timestamp": "2025-12-21T16:47:55.015949+00:00", "meta": {"OBJECT_NAME": "FENGYUN 1C DEB", "OBJECT_ID": "1999-025ANR", "EPOCH": "2025-12-20T21:54:31.497120", "MEAN_MOTION": 14.09764413, "ECCENTRICITY": 0.0121094, "INCLINATION": 99.2933, "RA_OF_ASC_NODE": 337.9942, "ARG_OF_PERICENTER": 73.9192, "MEAN_ANOMALY": 1.3638, "EPHEMERIS_TYPE": 0, "CLASSIFICATION_TYPE": "U", "NORAD_CAT_ID": 30634, "ELEMENT_SET_NO": 999, "REV_AT_EPOCH": 95732, "BSTAR": 0.0016161, "MEAN_MOTION_DOT": 2.993e-05, "MEAN_MOTION_DDOT": 0}, "tle": {"line1": "1 30634U 99025ANR 25354.91286455  .00002993  00000+0  16161-2 0  9999", "line2": "2 30634  99.2933 337.9942 0121094  73.9192   1.3638 14.09764413957324"}}, "geometry": {"type": "Point", "coordinates": [-175.4109499119934, 69.371084765931]}}, {"type": "Feature", "properties": {"norad_id": 30639, "name": "FENGYUN 1C DEB", "group": "fengyun-1c-debris", "lat": 36.00139013423825, "lon": -65.3298090193221, "alt_km": 798.9467052019218, "timestamp": "2025-12-21T16:47:55.015958+00:00", "meta": {"OBJECT_NAME": "FENGYUN 1C DEB", "OBJECT_ID": "1999-025ANW", "EPOCH": "2025-12-21T06:03:58.261824", "MEAN_MOTION": 14.32453813, "ECCENTRICITY": 0.0068376, "INCLINATION": 99.0184, "RA_OF_ASC_NODE": 107.579, "ARG_OF_PERICENTER": 256.5668, "MEAN_ANOMALY": 102.7887, "EPHEMERIS_TYPE": 0, "CLASSIFICATION_TYPE": "U", "NORAD_CAT_ID": 30639, "ELEMENT_SET_NO": 999, "REV_AT_EPOCH": 96841, "BSTAR": 0.0023144, "MEAN_MOTION_DOT": 6.388e-05, "MEAN_MOTION_DDOT": 0}, "tle": {"line1": "1 30639U 99025ANW 25355.25275766  .00006388  00000+0  23144-2 0  9996", "line2": "2 30639  99.0184 107.5790 0068376 256.5668 102.7887 14.32453813968416"}}, "geometry": {"type": "Point", "coordinates": [-65.3298090193221, 36.00139013423825]}}, {"type": "Feature", "properties": {"norad_id": 30640, "name": "FENGYUN 1C DEB", "group": "fengyun-1c-debris", "lat": 66.34162614760305, "lon": 45.684477200800096, "alt_km": 779.3515005453528, "timestamp": "2025-12-21T16:47:55.015970+00:00", "meta": {"OBJECT_NAME": "FENGYUN 1C DEB", "OBJECT_ID": "1999-025ANX", "EPOCH": "2025-12-20T22:03:54.475200", "MEAN_MOTION": 14.14671314, "ECCENTRICITY": 0.0080331, "INCLINATION": 99.0571, "RA_OF_ASC_NODE": 66.2442, "ARG_OF_PERICENTER": 77.6077, "MEAN_ANOMALY": 337.5453, "EPHEMERIS_TYPE": 0, "CLASSIFICATION_TYPE": "U", "NORAD_CAT_ID": 30640, "ELEMENT_SET_NO": 999, "REV_AT_EPOCH": 96561, "BSTAR": 0.0010021, "MEAN_MOTION_DOT": 1.944e-05, "MEAN_MOTION_DDOT": 0}, "tle": {"line1": "1 30640U 99025ANX 25354.91938050  .00001944  00000+0  10021-2 0  9995", "line2": "2 30640  99.0571  66.2442 0080331  77.6077 337.5453 14.14671314965618"}}, "geometry": {"type": "Point", "coordinates": [45.684477200800096, 66.34162614760305]}}, {"type": "Feature", "properties": {"norad_id": 30641, "name": "FENGYUN 1C DEB", "group": "fengyun-1c-debris", "lat": -69.38545388423007, "lon": -44.17968385951866, "alt_km": 733.7681077762618, "timestamp": "2025-12-21T16:47:55.015980+00:00", "meta": {"OBJECT_NAME": "FENGYUN 1C DEB", "OBJECT_ID": "1999-025ANY", "EPOCH": "2025-12-20T02:13:29.682624", "MEAN_MOTION": 14.79015011, "ECCENTRICITY": 0.01364103, "INCLINATION": 98.9434, "RA_OF_ASC_NODE": 289.2855, "ARG_OF_PERICENTER": 103.6266, "MEAN_ANOMALY": 272.7093, "EPHEMERIS_TYPE": 0, "CLASSIFICATION_TYPE": "U", "NORAD_CAT_ID": 30641, "ELEMENT_SET_NO": 999, "REV_AT_EPOCH": 641, "BSTAR": 0.00031447164, "MEAN_MOTION_DOT": 2.647e-05, "MEAN_MOTION_DDOT": 0}, "tle": {"line1": "1 30641U 99025ANY 25354.09270466  .00002647  00000+0  31447-3 0  9992", "line2": "2 30641  98.9434 289.2855 0136410 103.6266 272.7093 14.79015011  6411"}}, "geometry": {"type": "Point", "coordinates": [-44.17968385951866, -69.38545388423007]}}, {"type": "Feature", "properties": {"norad_id": 30646, "name": "FENGYUN 1C DEB", "group": "fengyun-1c-debris", "lat": -46.370770711096355, "lon": 25.082229990016472, "alt_km": 846.5957102008233, "timestamp": "2025-12-21T16:47:55.015990+00:00", "meta": {"OBJECT_NAME": "FENGYUN 1C DEB", "OBJECT_ID": "1999-025APD", "EPOCH": "2025-12-20T22:16:53.562144", "MEAN_MOTION": 14.09670373, "ECCENTRICITY": 0.0047883, "INCLINATION": 98.6515, "RA_OF_ASC_NODE": 15.1503, "ARG_OF_PERICENTER": 8.9139, "MEAN_ANOMALY": 351.2871, "EPHEMERIS_TYPE": 0, "CLASSIFICATION_TYPE": "U", "NORAD_CAT_ID": 30646, "ELEMENT_SET_NO": 999, "REV_AT_EPOCH": 96720, "BSTAR": 0.00055707, "MEAN_MOTION_DOT": 9.45e-06, "MEAN_MOTION_DDOT": 0}, "tle": {"line1": "1 30646U 99025APD 25354.92839771  .00000945  00000+0  55707-3 0  9993", "line2": "2 30646  98.6515  15.1503 0047883   8.9139 351.2871 14.09670373967201"}}, "geometry": {"type": "Point", "coordinates": [25.082229990016472, -46.370770711096355]}}, {"type": "Feature", "properties": {"norad_id": 30647, "name": "FENGYUN 1C DEB", "group": "fengyun-1c-debris", "lat": 55.39763054308755, "lon": 121.7039718502521, "alt_km": 679.2482445961023, "timestamp": "2025-12-21T16:47:55.016001+00:00", "meta": {"OBJECT_NAME": "FENGYUN 1C DEB", "OBJECT_ID": "1999-025APE", "EPOCH": "2025-12-21T07:02:23.832096", "MEAN_MOTION": 14.56615941, "ECCENTRICITY": 0.0029818, "INCLINATION": 98.9903, "RA_OF_ASC_NODE": 287.9999, "ARG_OF_PERICENTER": 147.0341, "MEAN_ANOMALY": 5.6239, "EPHEMERIS_TYPE": 0, "CLASSIFICATION_TYPE": "U", "NORAD_CAT_ID": 30647, "ELEMENT_SET_NO": 999, "REV_AT_EPOCH": 98113, "BSTAR": 0.0015353, "MEAN_MOTION_DOT": 6.839e-05, "MEAN_MOTION_DDOT": 0}, "tle": {"line1": "1 30647U 99025APE 25355.29333139  .00006839  00000+0  15353-2 0  9992", "line2": "2 30647  98.9903 287.9999 0029818 147.0341   5.6239 14.56615941981130"}}, "geometry": {"type": "Point", "coordinates": [121.7039718502521, 55.39763054308755]}}, {"type": "Feature", "properties": {"norad_id": 30648, "name": "FENGYUN 1C DEB", "group": "fengyun-1c-debris", "lat": 0.8128253529902421, "lon": 90.43258301422372, "alt_km": 738.4944700393371, "timestamp": "2025-12-21T16:47:55.016010+00:00", "meta": {"OBJECT_NAME": "FENGYUN 1C DEB", "OBJECT_ID": "1999-025APF", "EPOCH": "2025-12-21T01:02:08.263680", "MEAN_MOTION": 14.48230374, "ECCENTRICITY": 0.00339023, "INCLINATION": 98.6413, "RA_OF_ASC_NODE": 89.8848, "ARG_OF_PERICENTER": 103.2264, "MEAN_ANOMALY": 75.8092, "EPHEMERIS_TYPE": 0, "CLASSIFICATION_TYPE": "U", "NORAD_CAT_ID": 30648, "ELEMENT_SET_NO": 999, "REV_AT_EPOCH": 97986, "BSTAR": 0.0012521551, "MEAN_MOTION_DOT": 4.662e-05, "MEAN_MOTION_DDOT": 0}, "tle": {"line1": "1 30648U 99025APF 25355.04315120  .00004662  00000+0  12522-2 0  9993", "line2": "2 30648  98.6413  89.8848 0033902 103.2264  75.8092 14.48230374979860"}}, "geometry": {"type": "Point", "coordinates": [90.43258301422372, 0.8128253529902421]}}]}